FLOCK 4P-5              
1 44818U 19081Q   21335.71575374  .00004020  00000+0  17527-3 0  9997
2 44818  97.4317  37.9429 0010230 182.8992 177.2187 15.22704525111781
GAOFEN 12-1             
1 44819U 19082A   21335.95250645  .00000059  00000+0  14498-4 0  9999
2 44819  97.8762 355.2190 0002050  79.5582 280.5869 14.80297123108728
ALE-2                   
1 44824U 19084A   21335.86520045  .00011040  00000+0  15401-3 0  9997
2 44824  96.9074 191.8102 0011768 109.1428 251.1104 15.56971747112931
COSMOS 2543             
1 44835U 19079D   21335.89824583  .00003037  00000+0  11130-3 0  9992
2 44835  97.7944  33.5701 0095429  50.5459 310.4172 15.24621420107634
JILIN-01 GAOFEN 2B      
1 44836U 19086A   21335.88328785  .00000597  00000+0  40628-4 0  9996
2 44836  97.4449  34.9698 0009626 307.7252 167.8925 15.09923912109494
2019-087A               
1 44838U 19087A   21335.91846442  .00004632  00000+0  19434-3 0  9992
2 44838  97.4583 131.5029 0011171 235.0809 244.1554 15.23929283110353
2019-087B               
1 44839U 19087B   21335.87412949  .00003151  00000+0  13691-3 0  9993
2 44839  97.4555 130.9483 0011219 238.1501 271.1792 15.22988965110339
2019-087C               
1 44840U 19087C   21335.88107429  .00003819  00000+0  16373-3 0  9991
2 44840  97.4629 131.8988 0010364 240.7051 223.3709 15.23314482110359
2019-087D               
1 44841U 19087D   21335.86127416  .00009652  00000+0  36246-3 0  9990
2 44841  97.4414 132.3182 0008705 226.1821 240.0286 15.27370583110469
2019-087E               
1 44842U 19087E   21335.90964689  .00003594  00000+0  15302-3 0  9996
2 44842  97.4522 131.1244 0009921 241.4121 241.4960 15.23595073110373
2019-087F               
1 44843U 19087F   21335.90663883  .00002650  00000+0  11488-3 0  9992
2 44843  97.4588 131.5288 0011622 252.5688 231.5382 15.23207250110353
COSMOS 2544 [GLONASS-M] 
1 44850U 19088A   21335.61724468  .00000086  00000+0  00000+0 0  9991
2 44850  64.9133 129.3266 0009913 252.9988  71.6414  2.13102295 15355
TYVAK-0092              
1 44852U 19089A   21335.32341555  .00002043  00000+0  16384-3 0  9995
2 44852  36.9635 189.0967 0004505  80.3949 279.7302 15.00836903108165
TYVAK-0129              
1 44853U 19089B   21335.62748953  .00001934  00000+0  15623-3 0  9995
2 44853  36.9638 188.7388 0004529  67.5434 292.5787 15.00636898108301
DUCHIFAT-3              
1 44854U 19089C   21335.31709583  .00000984  00000+0  84286-4 0  9994
2 44854  36.9640 193.6332 0007753  39.6260 320.5086 14.99825927108166
LEMUR-2-JPGSQUARED      
1 44855U 19089D   21335.86028181  .00001277  00000+0  10624-3 0  9993
2 44855  36.9669 190.3171 0005290  32.1270  81.9282 15.00287526108308
QPS-SAR-1 IZANAGI       
1 44856U 19089E   21335.84517497  .00001627  00000+0  13608-3 0  9999
2 44856  36.9661 194.1793 0005606   4.4575 355.6223 14.99584632108260
RISAT-2BR1              
1 44857U 19089F   21335.86729308  .00000684  00000+0  63049-4 0  9995
2 44857  36.9627 198.7262 0007745 357.6412   2.4309 14.98206486108217
2019-089G               
1 44858U 19089G   21335.09218883  .00002245  00000+0  18518-3 0  9997
2 44858  36.9670 199.3907 0005316 339.1918  20.8606 14.99622960108143
IHOPSAT-TD              
1 44859U 19089H   21335.84397681  .00000437  00000+0  42170-4 0  9998
2 44859  36.9695 196.2592 0005475  15.4346 344.6561 14.98684825108179
LEMUR-2-HIMOMANDDAD     
1 44860U 19089J   21335.32313291  .00002850  00000+0  23048-3 0  9991
2 44860  36.9644 194.6323 0005116  22.0915 338.0047 15.00093829108096
LEMUR-2-PAPPY           
1 44861U 19089K   21335.90238633  .00002385  00000+0  19378-3 0  9996
2 44861  36.9641 190.9204 0004968  30.0476 330.0550 15.00113586108247
LEMUR-2-THEODOSIA       
1 44863U 19089M   21335.60883896  .00001400  00000+0  11614-3 0  9994
2 44863  36.9640 192.2678 0005037  32.4463 327.6587 15.00205929108119
BEIDOU-3 M19            
1 44864U 19090A   21335.32262624  .00000060  00000+0  00000+0 0  9990
2 44864  55.3042 118.2371 0014489 263.2266 122.3762  1.86231833 13342
BEIDOU-3 M20            
1 44865U 19090B   21335.72781286  .00000055  00000+0  00000+0 0  9999
2 44865  55.3068 118.2550 0012602 279.4192 107.7398  1.86231803 13329
JCSAT-18 (KACIFIC 1)    
1 44868U 19091A   21335.68143487 -.00000183  00000+0  00000+0 0  9996
2 44868   0.0071 266.7885 0000535  22.8336 176.4651  1.00270384  7393
CSG-1                   
1 44873U 19092A   21335.92517021  .00000089  00000+0  17767-4 0  9996
2 44873  97.8839 157.4665 0001431  79.7383 280.3996 14.82153573105846
CHEOPS                  
1 44874U 19092B   21335.46780312  .00000103  00000+0  33116-4 0  9994
2 44874  98.2350 159.7569 0010014 224.0163 136.0238 14.56890529103963
ANGELS                  
1 44876U 19092D   21335.56394534  .00001035  00000+0  55750-4 0  9997
2 44876  97.4684 156.6453 0011586 332.6122  27.4500 15.16987839108238
EYESAT-NANO             
1 44877U 19092E   21335.47790393  .00004648  00000+0  22538-3 0  9991
2 44877  97.4596 156.8766 0012173 333.7087  26.3528 15.18943329108286
OPS-SAT                 
1 44878U 19092F   21335.75386336  .00003023  00000+0  15527-3 0  9997
2 44878  97.4743 156.9271 0012396 313.2377  46.7820 15.17205526108195
2019-093A               
1 44879U 19093A   21335.93277638  .00000471  00000+0  66401-4 0  9995
2 44879  97.9144  52.9739 0016547 105.9436 254.3598 14.81734825105548
2019-093B               
1 44880U 19093B   21335.93222175  .00000474  00000+0  66674-4 0  9998
2 44880  97.9148  52.9969 0016559 106.7764 253.5267 14.81746243105535
CAS-6 (TIANQIN 1)       
1 44881U 19093C   21335.90188125  .00000153  00000+0  26231-4 0  9991
2 44881  97.9125  52.7998 0016472 107.1655 253.1347 14.81516360105528
2019-093D               
1 44882U 19093D   21335.94456026  .00000612  00000+0  83794-4 0  9991
2 44882  97.9190  53.4727 0017553 107.9761 252.3362 14.81941737105546
CBERS 4A                
1 44883U 19093E   21335.92725316 -.00001121  00000+0 -13633-3 0  9993
2 44883  97.9138  52.9988 0001881  70.8089 289.3437 14.81524351105542
2019-093F               
1 44884U 19093F   21335.92999630  .00000553  00000+0  75821-4 0  9990
2 44884  97.9137  53.3010 0015011 111.6032 248.6784 14.82234239105564
FLORIPASAT-1            
1 44885U 19093G   21335.88889825  .00000630  00000+0  84990-4 0  9993
2 44885  97.9149  53.6406 0015918 114.4602 245.8262 14.82487118105577
2019-093H               
1 44886U 19093H   21335.80845854  .00000433  00000+0  60187-4 0  9993
2 44886  97.9174  54.0771 0016451 119.2774 241.0089 14.82699012105586
2019-093J               
1 44887U 19093J   21335.75975507  .00000351  00000+0  50208-4 0  9999
2 44887  97.9165  53.9149 0016297 119.0324 241.2520 14.82609465105575
ELEKTRO-L 3             
1 44903U 19095A   21335.66669498 -.00000078  00000+0  00000+0 0  9996
2 44903   0.0234 185.1858 0001268  86.9988 114.5294  1.00270432  7082
GONETS-M 14             
1 44905U 19096A   21335.88571640  .00000021  00000+0  82349-4 0  9992
2 44905  82.5282  32.7156 0014518 168.5641 191.5770 12.42877571 87699
GONETS-M 15             
1 44906U 19096B   21335.83191891  .00000019  00000+0  65091-4 0  9996
2 44906  82.5303  32.9246 0015729 191.6354 168.4364 12.42877430 87673
GONETS-M 16             
1 44907U 19096C   21335.85594105  .00000021  00000+0  81681-4 0  9990
2 44907  82.5244  32.6079 0010889 231.9588 128.0510 12.42870721 87679
RS-44 & BREEZE-KM R/B   
1 44909U 19096E   21335.54690498  .00000031  00000+0  71630-4 0  9994
2 44909  82.5221   1.7863 0218394  62.6228 299.6912 12.79711281 90192
SHIJIAN-20 (SJ-20)      
1 44910U 19097A   21335.87472271 -.00000188  00000+0  00000+0 0  9992
2 44910   0.6730  93.3923 0002074 350.7796  29.1993  1.00267138  7070
STARLINK-1073           
1 44914U 20001A   21335.93229716  .00000746  00000+0  68988-4 0  9997
2 44914  53.0528 144.1571 0002192  91.8906 268.2334 15.06395123104904
STARLINK-1084           
1 44915U 20001B   21335.69639696  .00001129  00000+0  94699-4 0  9997
2 44915  53.0526 145.2162 0001826  87.8478 272.2720 15.06396954104876
STARLINK-1097           
1 44916U 20001C   21335.60797924 -.00269029  34133-4 -82904-3 0  9999
2 44916  53.0503  88.8768 0002044  57.0575 303.0647 15.90834873105654
STARLINK-1098           
1 44917U 20001D   21335.76641731 -.00001143  00000+0 -57836-4 0  9990
2 44917  53.0532 144.9057 0001777  88.9269 271.1923 15.06392911104882
STARLINK-1099           
1 44918U 20001E   21335.71113074  .00000807  00000+0  73128-4 0  9996
2 44918  53.0542 145.1572 0001911  91.0707 269.0501 15.06391327105611
STARLINK-1102           
1 44920U 20001G   21335.79223527  .00000731  00000+0  68008-4 0  9999
2 44920  53.0538 144.7836 0002003  88.8394 271.2824 15.06388256104884
STARLINK-1103           
1 44921U 20001H   21335.74798448  .00003564  00000+0  25789-3 0  9999
2 44921  53.0467 145.0072 0001239  82.8874 277.2255 15.06417685104859
STARLINK-1104           
1 44922U 20001J   21335.78116590  .00001094  00000+0  92366-4 0  9998
2 44922  53.0524 144.8327 0002007  92.6450 267.4769 15.06392651104886
STARLINK-1106           
1 44923U 20001K   21335.87332751  .00000364  00000+0  43356-4 0  9992
2 44923  53.0524 144.4200 0002103  91.4942 268.6288 15.06396794104895
STARLINK-1111           
1 44924U 20001L   21335.79592026  .00001863  00000+0  14394-3 0  9991
2 44924  53.0527 144.7669 0001856  86.2642 273.8559 15.06397639104881
STARLINK-1112           
1 44925U 20001M   21335.87700374 -.00001156  00000+0 -58704-4 0  9999
2 44925  53.0533 144.3986 0001807  90.7102 269.4094 15.06390346104898
STARLINK-1113           
1 44926U 20001N   21335.84608734 -.00000824  00000+0 -37395-4 0  9998
2 44926  52.9985 144.5451 0001831  89.2461 270.8737 15.05580122105618
STARLINK-1114           
1 44927U 20001P   21335.75536016  .00000951  00000+0  82732-4 0  9996
2 44927  53.0531 144.9442 0001907  88.6513 271.4694 15.06400787104883
